0 PSLV DEB
1 27152U 01049CY  13281.47941302  .00003147  00000-0  46421-3 0    48
2 27152 097.9043 235.6764 0041322 359.4644 122.9545 14.75445389632774
0 PSLV DEB
1 27152U 01049CY  13282.82348510  .00003165  00000-0  46661-3 0    57
2 27152 097.9042 236.9902 0041186 355.1561 062.1382 14.75461977632977
0 PSLV DEB
1 27152U 01049CY  13283.84081058  .00004238  00000-0  62215-3 0    67
2 27152 097.9041 237.9843 0041161 351.8367 065.8780 14.75467346633127
0 PSLV DEB
1 27152U 01049CY  13285.86910135  .00004035  00000-0  59256-3 0    86
2 27152 097.9040 239.9669 0040948 345.2338 039.6317 14.75478957633429
0 PSLV DEB
1 27152U 01049CY  13287.45214725  .00003568  00000-0  52480-3 0    98
2 27152 097.9043 241.5143 0040795 340.1192 168.3876 14.75492247633653
0 PSLV DEB
1 27152U 01049CY  13288.46750946  .00005359  00000-0  78414-3 0   107
2 27152 097.9046 242.5067 0040706 336.7173 161.9117 14.75501856633805
0 PSLV DEB
1 27152U 01049CY  13289.68529056  .00005898  00000-0  86203-3 0   112
2 27152 097.9053 243.6969 0040592 332.7400 150.6110 14.75509200633986
0 PSLV DEB
1 27152U 01049CY  13290.75574381  .00005427  00000-0  79377-3 0   126
2 27152 097.9057 244.7433 0040494 329.2393 076.7564 14.75521089634140
0 PSLV DEB
1 27152U 01049CY  13291.77669308  .00004317  00000-0  63297-3 0   135
2 27152 097.9061 245.7413 0040421 325.8227 100.0600 14.75530447634298
0 PSLV DEB
1 27152U 01049CY  13292.85914867  .00004873  00000-0  71340-3 0   144
2 27152 097.9064 246.7996 0040311 322.3017 090.0228 14.75538448634456
0 PSLV DEB
1 27152U 01049CY  13293.94202984  .00005585  00000-0  81627-3 0   156
2 27152 097.9067 247.8581 0040188 318.6750 082.3832 14.75547021634615
0 PSLV DEB
1 27152U 01049CY  13295.45404721  .00005287  00000-0  77293-3 0   161
2 27152 097.9069 249.3365 0040093 313.6347 194.3852 14.75562955634839
